{
    "links": {
        "self": "http://www.neowsapp.com/rest/v1/neo/3627117?api_key=iIulBulltgU6a56xZRHN4H3l9WmuAYTsLGpBGhQ2"
    },
    "id": "3627117",
    "neo_reference_id": "3627117",
    "name": "(2013 DP1)",
    "designation": "2013 DP1",
    "nasa_jpl_url": "http://ssd.jpl.nasa.gov/sbdb.cgi?sstr=3627117",
    "absolute_magnitude_h": 28.1,
    "estimated_diameter": {
        "kilometers": {
            "estimated_diameter_min": 0.0063760979,
            "estimated_diameter_max": 0.0142573883
        },
        "meters": {
            "estimated_diameter_min": 6.3760978988,
            "estimated_diameter_max": 14.2573883328
        },
        "miles": {
            "estimated_diameter_min": 0.0039619223,
            "estimated_diameter_max": 0.0088591276
        },
        "feet": {
            "estimated_diameter_min": 20.9189570301,
            "estimated_diameter_max": 46.7762099378
        }
    },
    "is_potentially_hazardous_asteroid": false,
    "close_approach_data": [
        {
            "close_approach_date": "2013-02-15",
            "close_approach_date_full": "2013-Feb-15 23:01",
            "epoch_date_close_approach": 1360969260000,
            "relative_velocity": {
                "kilometers_per_second": "13.7837990705",
                "kilometers_per_hour": "49621.6766538594",
                "miles_per_hour": "30832.9801408384"
            },
            "miss_distance": {
                "astronomical": "0.0030592851",
                "lunar": "1.1900619039",
                "kilometers": "457662.534682737",
                "miles": "284378.3122542906"
            },
            "orbiting_body": "Moon"
        },
        {
            "close_approach_date": "2013-02-16",
            "close_approach_date_full": "2013-Feb-16 03:44",
            "epoch_date_close_approach": 1360986240000,
            "relative_velocity": {
                "kilometers_per_second": "14.4487184257",
                "kilometers_per_hour": "52015.3863326579",
                "miles_per_hour": "32320.338246534"
            },
            "miss_distance": {
                "astronomical": "0.0042671253",
                "lunar": "1.6599117417",
                "kilometers": "638352.855903111",
                "miles": "396654.0715644918"
            },
            "orbiting_body": "Earth"
        }
    ],
    "orbital_data": {
        "orbit_id": "5",
        "orbit_determination_date": "2017-04-06 08:46:40",
        "first_observation_date": "2013-02-18",
        "last_observation_date": "2013-02-19",
        "data_arc_in_days": 1,
        "observations_used": 16,
        "orbit_uncertainty": "7",
        "minimum_orbit_intersection": ".00154338",
        "jupiter_tisserand_invariant": "3.110",
        "epoch_osculation": "2459000.5",
        "eccentricity": ".6658172307408691",
        "semi_major_axis": "2.498054554494578",
        "inclination": "6.801361935729277",
        "ascending_node_longitude": "327.6653764817121",
        "orbital_period": "1442.119684184776",
        "perihelion_distance": ".8348067887813825",
        "perihelion_argument": "128.5006305964391",
        "aphelion_distance": "4.161302320207773",
        "perihelion_time": "2459197.780718577725",
        "mean_anomaly": "310.7523130938132",
        "mean_motion": ".2496325401754061",
        "equinox": "J2000",
        "orbit_class": {
            "orbit_class_type": "APO",
            "orbit_class_description": "Near-Earth asteroid orbits which cross the Earth’s orbit similar to that of 1862 Apollo",
            "orbit_class_range": "a (semi-major axis) > 1.0 AU; q (perihelion) < 1.017 AU"
        }
    },
    "is_sentry_object": false
}